start=new Date('2021-10-02T00:00:00.000Z').valueOf();
sats=[{"MEAN_MOTION":"15.06401995","REF_FRAME":"TEME","CLASSIFICATION_TYPE":"U","GP_ID":"185963210","NORAD_CAT_ID":"48664","RCS_SIZE":"LARGE","LAUNCH_DATE":"2021-05-26","CENTER_NAME":"EARTH","MEAN_MOTION_DOT":"0.00002740","SITE":"AFETR","ECCENTRICITY":"0.00017340","TLE_LINE2":"2 48664  53.0561 183.3455 0001734  70.2459 289.8717 15.06401995 19700","APOAPSIS":"548.408","EPOCH":"2021-10-01T20:24:23.046336","ELEMENT_SET_NO":"999","OBJECT_NAME":"STARLINK-2709","DECAY_DATE":null,"TIME_SYSTEM":"UTC","BSTAR":"0.00020279000000","TLE_LINE1":"1 48664U 21055E   21274.85026674  .00002740  00000-0  20279-3 0  9991","INCLINATION":"53.0561","EPHEMERIS_TYPE":"0","OBJECT_ID":"2021-044AC","SEMIMAJOR_AXIS":"6925.342","ARG_OF_PERICENTER":"70.2459","REV_AT_EPOCH":"1970","COUNTRY_CODE":"US","MEAN_MOTION_DDOT":"0.0000000000000","PERIOD":"95.592","PERIAPSIS":"546.007","RA_OF_ASC_NODE":"183.3455","OBJECT_TYPE":"PAYLOAD","MEAN_ANOMALY":"289.8717","MEAN_ELEMENT_THEORY":"SGP4","FILE":"3139397"},{"SITE":"AFETR","LAUNCH_DATE":"2021-05-26","CENTER_NAME":"EARTH","MEAN_MOTION_DOT":"0.00003527","TLE_LINE2":"2 48665  53.0560 186.5593 0001714  70.9974 289.1200 15.06401592 19595","ECCENTRICITY":"0.00017140","REF_FRAME":"TEME","MEAN_MOTION":"15.06401592","RCS_SIZE":"LARGE","CLASSIFICATION_TYPE":"U","NORAD_CAT_ID":"48665","GP_ID":"185927862","BSTAR":"0.00025556000000","DECAY_DATE":null,"TIME_SYSTEM":"UTC","EPHEMERIS_TYPE":"0","TLE_LINE1":"1 48665U 21044AD  21274.13424559  .00003527  00000-0  25556-3 0  9992","INCLINATION":"53.0560","APOAPSIS":"548.396","OBJECT_NAME":"STARLINK-2653","ELEMENT_SET_NO":"999","EPOCH":"2021-10-01T03:13:18.818976","PERIAPSIS":"546.022","RA_OF_ASC_NODE":"186.5593","REV_AT_EPOCH":"1959","SEMIMAJOR_AXIS":"6925.344","OBJECT_ID":"2021-044AD","ARG_OF_PERICENTER":"70.9974","MEAN_MOTION_DDOT":"0.0000000000000","COUNTRY_CODE":"US","PERIOD":"95.592","MEAN_ANOMALY":"289.1200","OBJECT_TYPE":"PAYLOAD","FILE":"3138865","MEAN_ELEMENT_THEORY":"SGP4"},{"TLE_LINE1":"1 48666U 21044AE  21274.89722961 -.00001896  00000-0 -10842-3 0  9995","INCLINATION":"53.0550","EPHEMERIS_TYPE":"0","TIME_SYSTEM":"UTC","DECAY_DATE":null,"BSTAR":"-0.00010842000000","EPOCH":"2021-10-01T21:32:00.638304","ELEMENT_SET_NO":"999","OBJECT_NAME":"STARLINK-2666","APOAPSIS":"548.545","ECCENTRICITY":"0.00019440","TLE_LINE2":"2 48666  53.0550 183.1388 0001944  73.5382 286.5820 15.06404866 19706","CENTER_NAME":"EARTH","MEAN_MOTION_DOT":"-0.00001896","LAUNCH_DATE":"2021-05-26","SITE":"AFETR","GP_ID":"185963418","NORAD_CAT_ID":"48666","CLASSIFICATION_TYPE":"U","RCS_SIZE":"LARGE","MEAN_MOTION":"15.06404866","REF_FRAME":"TEME","MEAN_ELEMENT_THEORY":"SGP4","FILE":"3139397","MEAN_ANOMALY":"286.5820","OBJECT_TYPE":"PAYLOAD","RA_OF_ASC_NODE":"183.1388","PERIAPSIS":"545.852","PERIOD":"95.592","COUNTRY_CODE":"US","MEAN_MOTION_DDOT":"0.0000000000000","ARG_OF_PERICENTER":"73.5382","OBJECT_ID":"2021-044AE","SEMIMAJOR_AXIS":"6925.334","REV_AT_EPOCH":"1970"},{"REF_FRAME":"TEME","MEAN_MOTION":"15.06398092","GP_ID":"185963001","NORAD_CAT_ID":"48667","CLASSIFICATION_TYPE":"U","RCS_SIZE":"LARGE","MEAN_MOTION_DOT":"0.00000385","CENTER_NAME":"EARTH","LAUNCH_DATE":"2021-05-26","SITE":"AFETR","ECCENTRICITY":"0.00021030","TLE_LINE2":"2 48667  53.0542 183.3586 0002103  70.2667 289.8548 15.06398092 19704","APOAPSIS":"548.676","ELEMENT_SET_NO":"999","EPOCH":"2021-10-01T20:19:04.852416","OBJECT_NAME":"STARLINK-2735","TIME_SYSTEM":"UTC","DECAY_DATE":null,"BSTAR":"0.00004477700000","INCLINATION":"53.0542","TLE_LINE1":"1 48667U 21044AF  21274.84658394  .00000385  00000-0  44777-4 0  9994","EPHEMERIS_TYPE":"0","ARG_OF_PERICENTER":"70.2667","SEMIMAJOR_AXIS":"6925.354","OBJECT_ID":"2021-044AF","REV_AT_EPOCH":"1970","PERIOD":"95.592","MEAN_MOTION_DDOT":"0.0000000000000","COUNTRY_CODE":"US","PERIAPSIS":"545.763","RA_OF_ASC_NODE":"183.3586","MEAN_ANOMALY":"289.8548","OBJECT_TYPE":"PAYLOAD","MEAN_ELEMENT_THEORY":"SGP4","FILE":"3139397"},{"ELEMENT_SET_NO":"999","EPOCH":"2021-10-01T04:18:22.876416","OBJECT_NAME":"STARLINK-2738","APOAPSIS":"548.450","TLE_LINE1":"1 48668U 21044AG  21274.17943144  .00000946  00000-0  82381-4 0  9997","INCLINATION":"53.0554","EPHEMERIS_TYPE":"0","DECAY_DATE":null,"TIME_SYSTEM":"UTC","BSTAR":"0.00008238100000","CLASSIFICATION_TYPE":"U","GP_ID":"185928188","NORAD_CAT_ID":"48668","RCS_SIZE":"LARGE","REF_FRAME":"TEME","MEAN_MOTION":"15.06397011","TLE_LINE2":"2 48668  53.0554 186.3557 0001772  77.7170 282.4018 15.06397011 19601","ECCENTRICITY":"0.00017720","LAUNCH_DATE":"2021-05-26","CENTER_NAME":"EARTH","MEAN_MOTION_DOT":"0.00000946","SITE":"AFETR","MEAN_ELEMENT_THEORY":"SGP4","FILE":"3138865","OBJECT_TYPE":"PAYLOAD","MEAN_ANOMALY":"282.4018","MEAN_MOTION_DDOT":"0.0000000000000","COUNTRY_CODE":"US","PERIOD":"95.592","OBJECT_ID":"2021-044AG","SEMIMAJOR_AXIS":"6925.358","ARG_OF_PERICENTER":"77.7170","REV_AT_EPOCH":"1960","RA_OF_ASC_NODE":"186.3557","PERIAPSIS":"545.996"},{"ARG_OF_PERICENTER":"70.9251","OBJECT_ID":"2021-044AH","SEMIMAJOR_AXIS":"6925.359","REV_AT_EPOCH":"1959","PERIOD":"95.592","COUNTRY_CODE":"US","MEAN_MOTION_DDOT":"0.0000000000000","PERIAPSIS":"545.790","RA_OF_ASC_NODE":"186.4067","MEAN_ANOMALY":"289.1962","OBJECT_TYPE":"PAYLOAD","MEAN_ELEMENT_THEORY":"SGP4","FILE":"3138865","REF_FRAME":"TEME","MEAN_MOTION":"15.06396450","NORAD_CAT_ID":"48669","GP_ID":"185927536","CLASSIFICATION_TYPE":"U","RCS_SIZE":"LARGE","CENTER_NAME":"EARTH","MEAN_MOTION_DOT":"-0.00000995","LAUNCH_DATE":"2021-05-26","SITE":"AFETR","ECCENTRICITY":"0.00020720","TLE_LINE2":"2 48669  53.0495 186.4067 0002072  70.9251 289.1962 15.06396450 19598","APOAPSIS":"548.659","ELEMENT_SET_NO":"999","EPOCH":"2021-10-01T04:13:04.499328","OBJECT_NAME":"STARLINK-2707","TIME_SYSTEM":"UTC","DECAY_DATE":null,"BSTAR":"-0.00004788500000","INCLINATION":"53.0495","TLE_LINE1":"1 48669U 21044AH  21274.17574652 -.00000995  00000-0 -47885-4 0  9998","EPHEMERIS_TYPE":"0"},{"FILE":"3139397","MEAN_ELEMENT_THEORY":"SGP4","OBJECT_TYPE":"PAYLOAD","MEAN_ANOMALY":"287.5508","RA_OF_ASC_NODE":"183.1461","PERIAPSIS":"545.908","COUNTRY_CODE":"US","MEAN_MOTION_DDOT":"0.0000000000000","PERIOD":"95.592","REV_AT_EPOCH":"1970","OBJECT_ID":"2021-044AJ","SEMIMAJOR_AXIS":"6925.344","ARG_OF_PERICENTER":"72.5686","EPHEMERIS_TYPE":"0","TLE_LINE1":"1 48670U 21044AJ  21274.90186730  .00002853  00000-0  21038-3 0  9991","INCLINATION":"53.0496","BSTAR":"0.00021038000000","DECAY_DATE":null,"TIME_SYSTEM":"UTC","OBJECT_NAME":"STARLINK-2763","ELEMENT_SET_NO":"999","EPOCH":"2021-10-01T21:38:41.334720","APOAPSIS":"548.509","ECCENTRICITY":"0.00018780","TLE_LINE2":"2 48670  53.0496 183.1461 0001878  72.5686 287.5508 15.06401524 19706","SITE":"AFETR","LAUNCH_DATE":"2021-05-26","CENTER_NAME":"EARTH","MEAN_MOTION_DOT":"0.00002853","RCS_SIZE":"LARGE","CLASSIFICATION_TYPE":"U","GP_ID":"185963315","NORAD_CAT_ID":"48670","MEAN_MOTION":"15.06401524","REF_FRAME":"TEME"},{"BSTAR":"0.00006578000000","DECAY_DATE":null,"TIME_SYSTEM":"UTC","EPHEMERIS_TYPE":"0","TLE_LINE1":"1 48671U 21044AK  21274.89818802  .00000698  00000-0  65780-4 0  9990","INCLINATION":"53.0556","APOAPSIS":"548.334","OBJECT_NAME":"STARLINK-2745","ELEMENT_SET_NO":"999","EPOCH":"2021-10-01T21:33:23.444928","SITE":"AFETR","LAUNCH_DATE":"2021-05-26","MEAN_MOTION_DOT":"0.00000698","CENTER_NAME":"EARTH","ECCENTRICITY":"0.00015980","TLE_LINE2":"2 48671  53.0556 183.1338 0001598  80.2799 279.8370 15.06395443 19700","REF_FRAME":"TEME","MEAN_MOTION":"15.06395443","RCS_SIZE":"LARGE","CLASSIFICATION_TYPE":"U","GP_ID":"185962671","NORAD_CAT_ID":"48671","OBJECT_TYPE":"PAYLOAD","MEAN_ANOMALY":"279.8370","FILE":"3139397","MEAN_ELEMENT_THEORY":"SGP4","PERIAPSIS":"546.121","RA_OF_ASC_NODE":"183.1338","REV_AT_EPOCH":"1970","SEMIMAJOR_AXIS":"6925.363","OBJECT_ID":"2021-044AK","ARG_OF_PERICENTER":"80.2799","COUNTRY_CODE":"US","MEAN_MOTION_DDOT":"0.0000000000000","PERIOD":"95.592"},{"CLASSIFICATION_TYPE":"U","GP_ID":"185963211","NORAD_CAT_ID":"48672","RCS_SIZE":"LARGE","MEAN_MOTION":"15.06405638","REF_FRAME":"TEME","ECCENTRICITY":"0.00018470","TLE_LINE2":"2 48672  53.0553 183.1456 0001847  71.0562 289.0627 15.06405638 19708","LAUNCH_DATE":"2021-05-26","MEAN_MOTION_DOT":"0.00000568","CENTER_NAME":"EARTH","SITE":"AFETR","ELEMENT_SET_NO":"999","EPOCH":"2021-10-01T21:28:04.761120","OBJECT_NAME":"STARLINK-2705","APOAPSIS":"548.475","INCLINATION":"53.0553","TLE_LINE1":"1 48672U 21044AL  21274.89449955  .00000568  00000-0  57038-4 0  9993","EPHEMERIS_TYPE":"0","DECAY_DATE":null,"TIME_SYSTEM":"UTC","BSTAR":"0.00005703800000","COUNTRY_CODE":"US","MEAN_MOTION_DDOT":"0.0000000000000","PERIOD":"95.592","SEMIMAJOR_AXIS":"6925.331","OBJECT_ID":"2021-044AL","ARG_OF_PERICENTER":"71.0562","REV_AT_EPOCH":"1970","RA_OF_ASC_NODE":"183.1456","PERIAPSIS":"545.917","MEAN_ELEMENT_THEORY":"SGP4","FILE":"3139397","OBJECT_TYPE":"PAYLOAD","MEAN_ANOMALY":"289.0627"},{"DECAY_DATE":null,"TIME_SYSTEM":"UTC","BSTAR":"0.00010894000000","TLE_LINE1":"1 48673U 21044AM  21274.89080847  .00001342  00000-0  10894-3 0  9994","INCLINATION":"53.0550","EPHEMERIS_TYPE":"0","APOAPSIS":"548.466","EPOCH":"2021-10-01T21:22:45.851808","ELEMENT_SET_NO":"999","OBJECT_NAME":"STARLINK-2711","LAUNCH_DATE":"2021-05-26","MEAN_MOTION_DOT":"0.00001342","CENTER_NAME":"EARTH","SITE":"AFETR","ECCENTRICITY":"0.00018620","TLE_LINE2":"2 48673  53.0550 183.1653 0001862  75.8561 284.2635 15.06412124 19707","MEAN_MOTION":"15.06412124","REF_FRAME":"TEME","CLASSIFICATION_TYPE":"U","NORAD_CAT_ID":"48673","GP_ID":"185963103","RCS_SIZE":"LARGE","MEAN_ANOMALY":"284.2635","OBJECT_TYPE":"PAYLOAD","MEAN_ELEMENT_THEORY":"SGP4","FILE":"3139397","PERIAPSIS":"545.887","RA_OF_ASC_NODE":"183.1653","SEMIMAJOR_AXIS":"6925.311","OBJECT_ID":"2021-044AM","ARG_OF_PERICENTER":"75.8561","REV_AT_EPOCH":"1970","COUNTRY_CODE":"US","MEAN_MOTION_DDOT":"0.0000000000000","PERIOD":"95.591"}];
